NORAD_CAT_ID,OBJECT_NAME,OBJECT_TYPE,EPOCH,MEAN_MOTION,ECCENTRICITY,INCLINATION,RA_OF_ASC_NODE,ARG_OF_PERICENTER,MEAN_ANOMALY,BSTAR,MEAN_MOTION_DOT,MEAN_MOTION_DDOT,TLE_LINE0,TLE_LINE1,TLE_LINE2,SEMIMAJOR_AXIS,PERIOD,APOGEE,PERIGEE,DECAYED
54082.0,STARLINK-5210,PAYLOAD,2023-01-28 06:56:49,15.08842829,0.0001386,53.216,35.7953,84.7258,275.3892,3.1427e-05,2.12e-06,0.0,0 STARLINK-5210,1 54082U 22136AH  23028.28946283  .00000212  00000-0  31427-4 0  9996,2 54082  53.2160  35.7953 0001386  84.7258 275.3892 15.08842829 15900,6917.872,95.437,540.696,538.778,0.0
54082.0,STARLINK-5210,PAYLOAD,2023-01-29 06:47:36,15.08843518,0.0001323,53.2169,31.3347,87.9265,272.1878,8.7372e-05,1.103e-05,0.0,0 STARLINK-5210,1 54082U 22136AH  23029.28305917  .00001103  00000-0  87372-4 0  9990,2 54082  53.2169  31.3347 0001323  87.9265 272.1878 15.08843518 15570,6917.87,95.437,540.65,538.819,0.0
54082.0,STARLINK-5210,PAYLOAD,2023-01-29 22:41:28,15.08834928,0.0001291,53.2182,28.3636,80.7807,279.3331,7.2713e-06,-1.72e-06,0.0,0 STARLINK-5210,1 54082U 22136AH  23029.94546753 -.00000172  00000-0  72713-5 0  9998,2 54082  53.2182  28.3636 0001291  80.7807 279.3331 15.08834928 16152,6917.896,95.438,540.654,538.868,0.0
54082.0,STARLINK-5210,PAYLOAD,2023-01-30 08:13:46,15.08840549,0.0001029,53.2176,26.577,71.2446,288.8658,4.2867e-05,3.95e-06,0.0,0 STARLINK-5210,1 54082U 22136AH  23030.34290305  .00000395  00000-0  42867-4 0  9995,2 54082  53.2176  26.5770 0001029  71.2446 288.8658 15.08840549 15733,6917.879,95.438,540.456,539.032,0.0
54082.0,STARLINK-5210,PAYLOAD,2023-01-30 22:32:15,15.08836362,0.0001372,53.218,23.9018,97.1276,262.9873,-2.9652e-05,-7.6e-06,0.0,0 STARLINK-5210,1 54082U 22136AH  23030.93906832 -.00000760  00000-0 -29652-4 0  9994,2 54082  53.2180  23.9018 0001372  97.1276 262.9873 15.08836362 15823,6917.892,95.438,540.706,538.807,0.0
54082.0,STARLINK-5210,PAYLOAD,2023-01-31 00:07:38,15.08834945,0.0001382,53.2178,23.604,98.0554,262.0595,-3.4924e-05,-8.44e-06,0.0,0 STARLINK-5210,1 54082U 22136AH  23031.00530953 -.00000844  00000-0 -34924-4 0  9991,2 54082  53.2178  23.6040 0001382  98.0554 262.0595 15.08834945 16314,6917.896,95.438,540.717,538.805,0.0
54082.0,STARLINK-5210,PAYLOAD,2023-01-31 06:29:10,15.08840739,0.0001289,53.2177,22.4144,97.8575,262.2564,1.8126e-05,1e-08,0.0,0 STARLINK-5210,1 54082U 22136AH  23031.27026463  .00000001  00000-0  18126-4 0  9995,2 54082  53.2177  22.4144 0001289  97.8575 262.2564 15.08840739 16351,6917.878,95.438,540.635,538.851,0.0
54082.0,STARLINK-5210,PAYLOAD,2023-02-01 06:19:57,15.08841954,0.0001348,53.2179,17.9539,101.9605,258.1538,7.532e-05,9.11e-06,0.0,0 STARLINK-5210,1 54082U 22136AH  23032.26386305  .00000911  00000-0  75320-4 0  9998,2 54082  53.2179  17.9539 0001348 101.9605 258.1538 15.08841954 16026,6917.874,95.437,540.672,538.807,0.0
54082.0,STARLINK-5210,PAYLOAD,2023-02-02 02:59:59,15.08833746,0.0001114,53.2176,14.0879,90.0538,270.0582,3.343e-06,-2.35e-06,0.0,0 STARLINK-5210,1 54082U 22136AH  23033.12499238 -.00000235  00000-0  33430-5 0  9991,2 54082  53.2176  14.0879 0001114  90.0538 270.0582 15.08833746 16631,6917.9,95.438,540.535,538.994,0.0
54082.0,STARLINK-5210,PAYLOAD,2023-02-02 07:46:08,15.08837623,0.0001418,53.2182,13.1955,101.8435,258.2716,6.215e-05,7.01e-06,0.0,0 STARLINK-5210,1 54082U 22136AH  23033.32370862  .00000701  00000-0  62150-4 0  9991,2 54082  53.2182  13.1955 0001418 101.8435 258.2716 15.08837623 16182,6917.888,95.438,540.734,538.772,0.0
54082.0,STARLINK-5210,PAYLOAD,2023-02-03 04:26:08,15.08856016,0.0001267,53.2178,9.3299,102.4871,257.6263,-6.0163e-05,-1.246e-05,0.0,0 STARLINK-5210,1 54082U 22136AH  23034.18482035 -.00001246  00000-0 -60163-4 0  9991,2 54082  53.2178   9.3299 0001267 102.4871 257.6263 15.08856016 16792,6917.831,95.437,540.573,538.82,0.0
54082.0,STARLINK-5210,PAYLOAD,2023-02-03 06:01:31,15.08848942,0.0001378,53.2184,9.0325,99.2105,260.9043,7.9789e-05,9.82e-06,0.0,0 STARLINK-5210,1 54082U 22136AH  23034.25106030  .00000982  00000-0  79789-4 0  9995,2 54082  53.2184   9.0325 0001378  99.2105 260.9043 15.08848942 16323,6917.853,95.437,540.671,538.765,0.0
54082.0,STARLINK-5210,PAYLOAD,2023-02-04 04:16:56,15.08841176,0.0001435,53.2188,4.8694,92.9115,267.2041,1.9631e-05,2.4e-07,0.0,0 STARLINK-5210,1 54082U 22136AH  23035.17842853  .00000024  00000-0  19631-4 0  9994,2 54082  53.2188   4.8694 0001435  92.9115 267.2041 15.08841176 16942,6917.877,95.437,540.735,538.749,0.0
54082.0,STARLINK-5210,PAYLOAD,2023-02-04 07:27:42,15.08843838,0.0001456,53.2188,4.2739,92.8997,267.2162,4.3428e-05,4.03e-06,0.0,0 STARLINK-5210,1 54082U 22136AH  23035.31090579  .00000403  00000-0  43428-4 0  9992,2 54082  53.2188   4.2739 0001456  92.8997 267.2162 15.08843838 16486,6917.869,95.437,540.741,538.726,0.0
54082.0,STARLINK-5210,PAYLOAD,2023-02-05 04:07:43,15.08844536,0.0001623,53.2178,0.4054,105.3603,254.7569,3.2849e-06,-2.36e-06,0.0,0 STARLINK-5210,1 54082U 22136AH  23036.17202603 -.00000236  00000-0  32849-5 0  9991,2 54082  53.2178   0.4054 0001623 105.3603 254.7569 15.08844536 16616,6917.867,95.437,540.854,538.609,0.0
54082.0,STARLINK-5210,PAYLOAD,2023-02-06 03:58:29,15.08845144,0.0001247,53.2177,355.9484,91.9883,268.1252,7.9294e-05,9.74e-06,0.0,0 STARLINK-5210,1 54082U 22136AH  23037.16562464  .00000974  00000-0  79294-4 0  9997,2 54082  53.2177 355.9484 0001247  91.9883 268.1252 15.08845144 17246,6917.865,95.437,540.592,538.867,0.0
54082.0,STARLINK-5210,PAYLOAD,2023-02-07 07:00:02,15.08863436,0.0001122,53.218,350.8938,93.7963,266.3157,7.4335e-05,8.96e-06,0.0,0 STARLINK-5210,1 54082U 22136AH  23038.29169179  .00000896  00000-0  74335-4 0  9992,2 54082  53.2180 350.8938 0001122  93.7963 266.3157 15.08863436 17416,6917.809,95.436,540.45,538.898,0.0
54082.0,STARLINK-5210,PAYLOAD,2023-02-08 05:15:26,15.08859546,0.000107,53.2182,346.7311,99.5236,260.5878,0.00014883,2.083e-05,0.0,0 STARLINK-5210,1 54082U 22136AH  23039.21905338  .00002083  00000-0  14883-3 0  9991,2 54082  53.2182 346.7311 0001070  99.5236 260.5878 15.08859546 17554,6917.821,95.436,540.426,538.945,0.0
54082.0,STARLINK-5210,PAYLOAD,2023-02-09 03:30:54,15.08818013,0.00011,53.2186,342.5673,87.3864,272.7254,-0.00023623,-4.043e-05,0.0,0 STARLINK-5210,1 54082U 22136AH  23040.14646058 -.00004043  00000-0 -23623-3 0  9998,2 54082  53.2186 342.5673 0001100  87.3864 272.7254 15.08818013 17691,6917.948,95.439,540.574,539.052,0.0
54082.0,STARLINK-5210,PAYLOAD,2023-02-09 05:06:17,15.08820958,0.0001086,53.2184,342.2697,83.9846,276.127,-0.00020597,-3.563e-05,0.0,0 STARLINK-5210,1 54082U 22136AH  23040.21269910 -.00003563  00000-0 -20597-3 0  9997,2 54082  53.2184 342.2697 0001086  83.9846 276.1270 15.08820958 17223,6917.939,95.439,540.555,539.052,0.0
54082.0,STARLINK-5210,PAYLOAD,2023-02-10 01:46:13,15.08880676,0.0001248,53.2185,338.4048,110.4403,249.6723,0.00026265,3.899e-05,0.0,0 STARLINK-5210,1 54082U 22136AH  23041.07376967  .00003899  00000-0  26265-3 0  9991,2 54082  53.2185 338.4048 0001248 110.4403 249.6723 15.08880676 17351,6917.756,95.435,540.484,538.758,0.0
54082.0,STARLINK-5210,PAYLOAD,2023-02-10 04:56:59,15.08886917,0.0001143,53.2182,337.81,94.3782,265.7341,0.00033446,5.046e-05,0.0,0 STARLINK-5210,1 54082U 22136AH  23041.20624214  .00005046  00000-0  33446-3 0  9992,2 54082  53.2182 337.8100 0001143  94.3782 265.7341 15.08886917 17858,6917.737,95.435,540.393,538.811,0.0
54082.0,STARLINK-5210,PAYLOAD,2023-02-11 01:36:58,15.08880257,0.0001075,53.2185,333.9408,96.0094,264.1021,0.00059688,9.235e-05,0.0,0 STARLINK-5210,1 54082U 22136AH  23042.06734757  .00009235  00000-0  59688-3 0  9991,2 54082  53.2185 333.9408 0001075  96.0094 264.1021 15.08880257 17981,6917.757,95.435,540.366,538.879,0.0
54082.0,STARLINK-5210,PAYLOAD,2023-02-11 19:06:17,15.08865553,0.0001031,53.2185,330.6708,98.907,261.2039,-0.00025434,-4.336e-05,0.0,0 STARLINK-5210,1 54082U 22136AH  23042.79603174 -.00004336  00000-0 -25434-3 0  9990,2 54082  53.2185 330.6708 0001031  98.9070 261.2039 15.08865553 18097,6917.802,95.436,540.381,538.954,0.0
54082.0,STARLINK-5210,PAYLOAD,2023-02-12 04:38:34,15.08871816,0.0001354,53.2166,328.8889,90.0616,270.0532,-0.00017542,-3.081e-05,0.0,0 STARLINK-5210,1 54082U 22136AH  23043.19345857 -.00003081  00000-0 -17542-3 0  9993,2 54082  53.2166 328.8889 0001354  90.0616 270.0532 15.08871816 18154,6917.783,95.436,540.585,538.711,0.0
54082.0,STARLINK-5210,PAYLOAD,2023-02-12 18:57:05,15.0882785,0.0001595,53.218,326.2135,66.2078,293.9082,-0.00030154,-5.082e-05,0.0,0 STARLINK-5210,1 54082U 22136AH  23043.78964268 -.00005082  00000-0 -30154-3 0  9998,2 54082  53.2180 326.2135 0001595  66.2078 293.9082 15.08827850 18243,6917.918,95.438,540.886,538.679,0.0
54082.0,STARLINK-5210,PAYLOAD,2023-02-13 04:29:23,15.08833246,0.0001846,53.215,324.4302,62.0439,298.074,-0.00014951,-2.666e-05,0.0,0 STARLINK-5210,1 54082U 22136AH  23044.18708254 -.00002666  00000-0 -14951-3 0  9996,2 54082  53.2150 324.4302 0001846  62.0439 298.0740 15.08833246 18300,6917.901,95.438,541.043,538.489,0.0
54082.0,STARLINK-5210,PAYLOAD,2023-02-13 12:26:20,15.08828389,0.000184,53.2147,322.9437,68.8482,291.2707,-1.7365e-06,-3.16e-06,0.0,0 STARLINK-5210,1 54082U 22136AH  23044.51828864 -.00000316  00000-0 -17365-5 0  9997,2 54082  53.2147 322.9437 0001840  68.8482 291.2707 15.08828389 17875,6917.916,95.438,541.054,538.508,0.0
54082.0,STARLINK-5210,PAYLOAD,2023-02-14 02:44:47,15.08845736,0.0001559,53.2188,320.2649,79.0081,281.1086,0.00016584,2.353e-05,0.0,0 STARLINK-5210,1 54082U 22136AH  23045.11443819  .00002353  00000-0  16584-3 0  9998,2 54082  53.2188 320.2649 0001559  79.0081 281.1086 15.08845736 18449,6917.863,95.437,540.806,538.649,0.0
54082.0,STARLINK-5210,PAYLOAD,2023-02-14 10:41:43,15.08835951,0.0001722,53.2183,318.7784,78.2054,281.9131,1.2378e-05,-9.1e-07,0.0,0 STARLINK-5210,1 54082U 22136AH  23045.44564417 -.00000091  00000-0  12378-4 0  9998,2 54082  53.2183 318.7784 0001722  78.2054 281.9131 15.08835951 18491,6917.893,95.438,540.949,538.567,0.0
